{
    "links": {
        "self": "http://www.neowsapp.com/rest/v1/neo/3555913?api_key=iIulBulltgU6a56xZRHN4H3l9WmuAYTsLGpBGhQ2"
    },
    "id": "3555913",
    "neo_reference_id": "3555913",
    "name": "(2011 BH40)",
    "designation": "2011 BH40",
    "nasa_jpl_url": "http://ssd.jpl.nasa.gov/sbdb.cgi?sstr=3555913",
    "absolute_magnitude_h": 24.9,
    "estimated_diameter": {
        "kilometers": {
            "estimated_diameter_min": 0.0278326768,
            "estimated_diameter_max": 0.0622357573
        },
        "meters": {
            "estimated_diameter_min": 27.8326768072,
            "estimated_diameter_max": 62.2357573367
        },
        "miles": {
            "estimated_diameter_min": 0.0172944182,
            "estimated_diameter_max": 0.0386714948
        },
        "feet": {
            "estimated_diameter_min": 91.3145593761,
            "estimated_diameter_max": 204.1855621004
        }
    },
    "is_potentially_hazardous_asteroid": false,
    "close_approach_data": [
        {
            "close_approach_date": "1974-07-02",
            "close_approach_date_full": "1974-Jul-02 16:51",
            "epoch_date_close_approach": 142015860000,
            "relative_velocity": {
                "kilometers_per_second": "12.8351399199",
                "kilometers_per_hour": "46206.5037114946",
                "miles_per_hour": "28710.9244867339"
            },
            "miss_distance": {
                "astronomical": "0.2961898591",
                "lunar": "115.2178551899",
                "kilometers": "44309372.036960117",
                "miles": "27532567.0816669346"
            },
            "orbiting_body": "Earth"
        },
        {
            "close_approach_date": "2011-02-10",
            "close_approach_date_full": "2011-Feb-10 09:59",
            "epoch_date_close_approach": 1297331940000,
            "relative_velocity": {
                "kilometers_per_second": "16.405794433",
                "kilometers_per_hour": "59060.8599589346",
                "miles_per_hour": "36698.1215672614"
            },
            "miss_distance": {
                "astronomical": "0.0402555388",
                "lunar": "15.6594045932",
                "kilometers": "6022142.860182356",
                "miles": "3741986.0551182728"
            },
            "orbiting_body": "Earth"
        },
        {
            "close_approach_date": "2185-07-06",
            "close_approach_date_full": "2185-Jul-06 20:00",
            "epoch_date_close_approach": 6800961600000,
            "relative_velocity": {
                "kilometers_per_second": "12.7136440333",
                "kilometers_per_hour": "45769.1185200334",
                "miles_per_hour": "28439.1503381841"
            },
            "miss_distance": {
                "astronomical": "0.2917730854",
                "lunar": "113.4997302206",
                "kilometers": "43648632.099168098",
                "miles": "27122002.3224638324"
            },
            "orbiting_body": "Earth"
        }
    ],
    "orbital_data": {
        "orbit_id": "8",
        "orbit_determination_date": "2020-09-04 08:55:48",
        "first_observation_date": "2011-01-27",
        "last_observation_date": "2011-01-30",
        "data_arc_in_days": 3,
        "observations_used": 16,
        "orbit_uncertainty": "9",
        "minimum_orbit_intersection": ".0358584",
        "jupiter_tisserand_invariant": "4.557",
        "epoch_osculation": "2455589.5",
        "eccentricity": ".5482088710335995",
        "semi_major_axis": "1.409982531185379",
        "inclination": "5.543133892245169",
        "ascending_node_longitude": "118.4550042090782",
        "orbital_period": "611.5317710253365",
        "perihelion_distance": ".6370175995871453",
        "perihelion_argument": "112.3725052845008",
        "aphelion_distance": "2.182947462783612",
        "perihelion_time": "2455655.345025422618",
        "mean_anomaly": "321.2379760541331",
        "mean_motion": ".5886856857762256",
        "equinox": "J2000",
        "orbit_class": {
            "orbit_class_type": "APO",
            "orbit_class_description": "Near-Earth asteroid orbits which cross the Earth’s orbit similar to that of 1862 Apollo",
            "orbit_class_range": "a (semi-major axis) > 1.0 AU; q (perihelion) < 1.017 AU"
        }
    },
    "is_sentry_object": false
}